STARLINK-36783          
1 67873U 26034Z   26067.57642721  .00336528  00000+0  16363-2 0  9998
2 67873  53.1596 216.7308 0000930  64.5217 295.5902 15.80960643  3766
STARLINK-36730          
1 67874U 26034AA  26067.63889410  .00335878  00000+0  16305-2 0  9997
2 67874  53.1594 216.4096 0001248  37.6803 322.4307 15.80998258  3774
STARLINK-36727          
1 67875U 26034AB  26067.57492607  .00256995  00000+0  12623-2 0  9990
2 67875  53.1598 216.7208 0001003  52.4305 307.6809 15.80958383  3764
STARLINK-36743          
1 67876U 26034AC  26067.57417651  .00240548  00000+0  11843-2 0  9997
2 67876  53.1599 216.7150 0001612  40.4805 319.6337 15.80953129  3762
STARLINK-36784          
1 67877U 26034AD  26067.57342604  .00313039  00000+0  15263-2 0  9999
2 67877  53.1601 216.7103 0000876  64.4050 295.7064 15.80964646  3761
STARLINK-36689          
1 67878U 26034AE  26067.57267673  .00294736  00000+0  14403-2 0  9999
2 67878  53.1594 216.7056 0001040  96.6720 263.4421 15.80964308  3769
STARLINK-36818          
1 67879U 26035A   26067.58335648 -.01147205  38122-3 -38444-2 0  9992
2 67879  97.2742 359.8323 0001194 101.7725 237.6947 15.90143852  3572
STARLINK-36821          
1 67880U 26035B   26067.58335648 -.01153473  38541-3 -38491-2 0  9995
2 67880  97.2735 359.8357 0001172  95.6744 252.0261 15.90228470  3571
STARLINK-36808          
1 67881U 26035C   26067.58335648 -.01147822  38185-3 -38336-2 0  9999
2 67881  97.2737 359.8335 0001188  94.3048 248.6078 15.90210708  3572
STARLINK-36817          
1 67882U 26035D   26067.58335648 -.01167179  39412-3 -38862-2 0  9995
2 67882  97.2723 359.8389 0001182  97.5003 259.6387 15.90274854  3574
STARLINK-36856          
1 67883U 26035E   26067.58335648 -.01160358  38974-3 -38695-2 0  9994
2 67883  97.2730 359.8374 0001142  92.1613 260.4806 15.90242737  3572
STARLINK-36842          
1 67884U 26035F   26067.58335648 -.01174905  39914-3 -39037-2 0  9994
2 67884  97.2722 359.8408 0001155  82.3565 279.0768 15.90317445  3575
STARLINK-36826          
1 67885U 26035G   26067.58335648 -.01187933  40764-3 -39342-2 0  9994
2 67885  97.2721 359.8423 0001159  96.1237 269.0186 15.90383841  3571
STARLINK-36390          
1 67886U 26035H   26067.58335648 -.01243908  44408-3 -41145-2 0  9993
2 67886  97.2716 359.8442 0001153  87.6648 282.4144 15.90416253  3625
STARLINK-36368          
1 67887U 26035J   26067.58335648 -.01301534  48307-3 -42997-2 0  9992
2 67887  97.2713 359.8460 0001215  93.9418 280.9015 15.90449458  3574
STARLINK-36801          
1 67888U 26035K   26067.58335648 -.01318772  49503-3 -43549-2 0  9998
2 67888  97.2709 359.8480 0001231  88.3529 291.1455 15.90459769  3579
