[{"OBJECT_NAME":"STARLINK-36783","OBJECT_ID":"2026-034Z","EPOCH":"2026-03-08T13:50:03.310944","MEAN_MOTION":15.80960643,"ECCENTRICITY":9.303e-5,"INCLINATION":53.1596,"RA_OF_ASC_NODE":216.7308,"ARG_OF_PERICENTER":64.5217,"MEAN_ANOMALY":295.5902,"EPHEMERIS_TYPE":0,"CLASSIFICATION_TYPE":"U","NORAD_CAT_ID":67873,"ELEMENT_SET_NO":999,"REV_AT_EPOCH":376,"BSTAR":0.0016363283,"MEAN_MOTION_DOT":0.00336528,"MEAN_MOTION_DDOT":0},{"OBJECT_NAME":"STARLINK-36730","OBJECT_ID":"2026-034AA","EPOCH":"2026-03-08T15:20:00.450240","MEAN_MOTION":15.80998258,"ECCENTRICITY":0.00012488,"INCLINATION":53.1594,"RA_OF_ASC_NODE":216.4096,"ARG_OF_PERICENTER":37.6803,"MEAN_ANOMALY":322.4307,"EPHEMERIS_TYPE":0,"CLASSIFICATION_TYPE":"U","NORAD_CAT_ID":67874,"ELEMENT_SET_NO":999,"REV_AT_EPOCH":377,"BSTAR":0.0016305034,"MEAN_MOTION_DOT":0.00335878,"MEAN_MOTION_DDOT":0},{"OBJECT_NAME":"STARLINK-36727","OBJECT_ID":"2026-034AB","EPOCH":"2026-03-08T13:47:53.612448","MEAN_MOTION":15.80958383,"ECCENTRICITY":0.00010032,"INCLINATION":53.1598,"RA_OF_ASC_NODE":216.7208,"ARG_OF_PERICENTER":52.4305,"MEAN_ANOMALY":307.6809,"EPHEMERIS_TYPE":0,"CLASSIFICATION_TYPE":"U","NORAD_CAT_ID":67875,"ELEMENT_SET_NO":999,"REV_AT_EPOCH":376,"BSTAR":0.001262252,"MEAN_MOTION_DOT":0.00256995,"MEAN_MOTION_DDOT":0},{"OBJECT_NAME":"STARLINK-36743","OBJECT_ID":"2026-034AC","EPOCH":"2026-03-08T13:46:48.850464","MEAN_MOTION":15.80953129,"ECCENTRICITY":0.00016127,"INCLINATION":53.1599,"RA_OF_ASC_NODE":216.715,"ARG_OF_PERICENTER":40.4805,"MEAN_ANOMALY":319.6337,"EPHEMERIS_TYPE":0,"CLASSIFICATION_TYPE":"U","NORAD_CAT_ID":67876,"ELEMENT_SET_NO":999,"REV_AT_EPOCH":376,"BSTAR":0.0011842562,"MEAN_MOTION_DOT":0.00240548,"MEAN_MOTION_DDOT":0},{"OBJECT_NAME":"STARLINK-36784","OBJECT_ID":"2026-034AD","EPOCH":"2026-03-08T13:45:44.009856","MEAN_MOTION":15.80964646,"ECCENTRICITY":8.765e-5,"INCLINATION":53.1601,"RA_OF_ASC_NODE":216.7103,"ARG_OF_PERICENTER":64.405,"MEAN_ANOMALY":295.7064,"EPHEMERIS_TYPE":0,"CLASSIFICATION_TYPE":"U","NORAD_CAT_ID":67877,"ELEMENT_SET_NO":999,"REV_AT_EPOCH":376,"BSTAR":0.0015262683,"MEAN_MOTION_DOT":0.00313039,"MEAN_MOTION_DDOT":0},{"OBJECT_NAME":"STARLINK-36689","OBJECT_ID":"2026-034AE","EPOCH":"2026-03-08T13:44:39.269472","MEAN_MOTION":15.80964308,"ECCENTRICITY":0.00010408,"INCLINATION":53.1594,"RA_OF_ASC_NODE":216.7056,"ARG_OF_PERICENTER":96.672,"MEAN_ANOMALY":263.4421,"EPHEMERIS_TYPE":0,"CLASSIFICATION_TYPE":"U","NORAD_CAT_ID":67878,"ELEMENT_SET_NO":999,"REV_AT_EPOCH":376,"BSTAR":0.0014403489,"MEAN_MOTION_DOT":0.00294736,"MEAN_MOTION_DDOT":0},{"OBJECT_NAME":"STARLINK-36818","OBJECT_ID":"2026-035A","EPOCH":"2026-03-08T14:00:01.999872","MEAN_MOTION":15.90143852,"ECCENTRICITY":0.0001194,"INCLINATION":97.2742,"RA_OF_ASC_NODE":359.8323,"ARG_OF_PERICENTER":101.7725,"MEAN_ANOMALY":237.6947,"EPHEMERIS_TYPE":0,"CLASSIFICATION_TYPE":"U","NORAD_CAT_ID":67879,"ELEMENT_SET_NO":999,"REV_AT_EPOCH":357,"BSTAR":-0.0038443845,"MEAN_MOTION_DOT":-0.01147205,"MEAN_MOTION_DDOT":0.00038121752},{"OBJECT_NAME":"STARLINK-36821","OBJECT_ID":"2026-035B","EPOCH":"2026-03-08T14:00:01.999872","MEAN_MOTION":15.9022847,"ECCENTRICITY":0.00011724,"INCLINATION":97.2735,"RA_OF_ASC_NODE":359.8357,"ARG_OF_PERICENTER":95.6744,"MEAN_ANOMALY":252.0261,"EPHEMERIS_TYPE":0,"CLASSIFICATION_TYPE":"U","NORAD_CAT_ID":67880,"ELEMENT_SET_NO":999,"REV_AT_EPOCH":357,"BSTAR":-0.0038491424,"MEAN_MOTION_DOT":-0.01153473,"MEAN_MOTION_DDOT":0.00038540943},{"OBJECT_NAME":"STARLINK-36808","OBJECT_ID":"2026-035C","EPOCH":"2026-03-08T14:00:01.999872","MEAN_MOTION":15.90210708,"ECCENTRICITY":0.00011885,"INCLINATION":97.2737,"RA_OF_ASC_NODE":359.8335,"ARG_OF_PERICENTER":94.3048,"MEAN_ANOMALY":248.6078,"EPHEMERIS_TYPE":0,"CLASSIFICATION_TYPE":"U","NORAD_CAT_ID":67881,"ELEMENT_SET_NO":999,"REV_AT_EPOCH":357,"BSTAR":-0.0038335515,"MEAN_MOTION_DOT":-0.01147822,"MEAN_MOTION_DDOT":0.00038184987},{"OBJECT_NAME":"STARLINK-36817","OBJECT_ID":"2026-035D","EPOCH":"2026-03-08T14:00:01.999872","MEAN_MOTION":15.90274854,"ECCENTRICITY":0.00011821,"INCLINATION":97.2723,"RA_OF_ASC_NODE":359.8389,"ARG_OF_PERICENTER":97.5003,"MEAN_ANOMALY":259.6387,"EPHEMERIS_TYPE":0,"CLASSIFICATION_TYPE":"U","NORAD_CAT_ID":67882,"ELEMENT_SET_NO":999,"REV_AT_EPOCH":357,"BSTAR":-0.0038861715,"MEAN_MOTION_DOT":-0.01167179,"MEAN_MOTION_DDOT":0.00039412102},{"OBJECT_NAME":"STARLINK-36856","OBJECT_ID":"2026-035E","EPOCH":"2026-03-08T14:00:01.999872","MEAN_MOTION":15.90242737,"ECCENTRICITY":0.00011429,"INCLINATION":97.273,"RA_OF_ASC_NODE":359.8374,"ARG_OF_PERICENTER":92.1613,"MEAN_ANOMALY":260.4806,"EPHEMERIS_TYPE":0,"CLASSIFICATION_TYPE":"U","NORAD_CAT_ID":67883,"ELEMENT_SET_NO":999,"REV_AT_EPOCH":357,"BSTAR":-0.0038695396,"MEAN_MOTION_DOT":-0.01160358,"MEAN_MOTION_DDOT":0.00038974051},{"OBJECT_NAME":"STARLINK-36842","OBJECT_ID":"2026-035F","EPOCH":"2026-03-08T14:00:01.999872","MEAN_MOTION":15.90317445,"ECCENTRICITY":0.00011555,"INCLINATION":97.2722,"RA_OF_ASC_NODE":359.8408,"ARG_OF_PERICENTER":82.3565,"MEAN_ANOMALY":279.0768,"EPHEMERIS_TYPE":0,"CLASSIFICATION_TYPE":"U","NORAD_CAT_ID":67884,"ELEMENT_SET_NO":999,"REV_AT_EPOCH":357,"BSTAR":-0.0039037319,"MEAN_MOTION_DOT":-0.01174905,"MEAN_MOTION_DDOT":0.00039914017},{"OBJECT_NAME":"STARLINK-36826","OBJECT_ID":"2026-035G","EPOCH":"2026-03-08T14:00:01.999872","MEAN_MOTION":15.90383841,"ECCENTRICITY":0.00011599,"INCLINATION":97.2721,"RA_OF_ASC_NODE":359.8423,"ARG_OF_PERICENTER":96.1237,"MEAN_ANOMALY":269.0186,"EPHEMERIS_TYPE":0,"CLASSIFICATION_TYPE":"U","NORAD_CAT_ID":67885,"ELEMENT_SET_NO":999,"REV_AT_EPOCH":357,"BSTAR":-0.0039341972,"MEAN_MOTION_DOT":-0.01187933,"MEAN_MOTION_DDOT":0.0004076439},{"OBJECT_NAME":"STARLINK-36390","OBJECT_ID":"2026-035H","EPOCH":"2026-03-08T14:00:01.999872","MEAN_MOTION":15.90416253,"ECCENTRICITY":0.00011532,"INCLINATION":97.2716,"RA_OF_ASC_NODE":359.8442,"ARG_OF_PERICENTER":87.6648,"MEAN_ANOMALY":282.4144,"EPHEMERIS_TYPE":0,"CLASSIFICATION_TYPE":"U","NORAD_CAT_ID":67886,"ELEMENT_SET_NO":999,"REV_AT_EPOCH":362,"BSTAR":-0.0041145042,"MEAN_MOTION_DOT":-0.01243908,"MEAN_MOTION_DDOT":0.00044408024},{"OBJECT_NAME":"STARLINK-36368","OBJECT_ID":"2026-035J","EPOCH":"2026-03-08T14:00:01.999872","MEAN_MOTION":15.90449458,"ECCENTRICITY":0.00012155,"INCLINATION":97.2713,"RA_OF_ASC_NODE":359.846,"ARG_OF_PERICENTER":93.9418,"MEAN_ANOMALY":280.9015,"EPHEMERIS_TYPE":0,"CLASSIFICATION_TYPE":"U","NORAD_CAT_ID":67887,"ELEMENT_SET_NO":999,"REV_AT_EPOCH":357,"BSTAR":-0.0042996726,"MEAN_MOTION_DOT":-0.01301534,"MEAN_MOTION_DDOT":0.00048307211},{"OBJECT_NAME":"STARLINK-36801","OBJECT_ID":"2026-035K","EPOCH":"2026-03-08T14:00:01.999872","MEAN_MOTION":15.90459769,"ECCENTRICITY":0.00012316,"INCLINATION":97.2709,"RA_OF_ASC_NODE":359.848,"ARG_OF_PERICENTER":88.3529,"MEAN_ANOMALY":291.1455,"EPHEMERIS_TYPE":0,"CLASSIFICATION_TYPE":"U","NORAD_CAT_ID":67888,"ELEMENT_SET_NO":999,"REV_AT_EPOCH":357,"BSTAR":-0.0043548885,"MEAN_MOTION_DOT":-0.01318772,"MEAN_MOTION_DDOT":0.00049503164}]
